ONEWEB-0055             
1 45443U 20020V   23171.68640262 -.00000297  00000+0 -87257-3 0  9993
2 45443  87.8913 238.0703 0001989  97.3145 262.8209 13.11421345159422
ONEWEB-0093             
1 45444U 20020W   23171.73622408 -.00000151  00000+0 -46270-3 0  9991
2 45444  87.8899 238.0533 0001852  88.9305 271.2035 13.11412720159495
ONEWEB-0029             
1 45445U 20020X   23171.68219948 -.00000427  00000+0 -12402-2 0  9992
2 45445  87.8909 238.0663 0002108  91.4272 268.7097 13.11417782159468
ONEWEB-0068             
1 45446U 20020Y   23171.72881139  .00000132  00000+0  33793-3 0  9993
2 45446  87.8901 238.0519 0001911  86.9314 273.2032 13.11415041159419
ONEWEB-0046             
1 45447U 20020Z   23171.64933913  .00000232  00000+0  61885-3 0  9997
2 45447  87.8901 238.0795 0002226  97.1964 262.9417 13.11415351159417
ONEWEB-0063             
1 45448U 20020AA  23171.67900656 -.00000481  00000+0 -13944-2 0  9999
2 45448  87.8909 238.0642 0002306  99.9063 260.2325 13.11418699159503
ONEWEB-0019             
1 45449U 20020AB  23171.72986100  .00000123  00000+0  31094-3 0  9992
2 45449  87.8905 238.0570 0001872 104.6553 255.4782 13.11417874159355
ONEWEB-0094             
1 45450U 20020AC  23171.65869538  .00000005  00000+0 -21291-4 0  9990
2 45450  87.9109 222.9878 0002053  94.2446 265.8920 13.17651978162437
ONEWEB-0087             
1 45451U 20020AD  23171.68748751 -.00000200  00000+0 -59992-3 0  9993
2 45451  87.8982 238.0210 0002226  87.7280 272.4103 13.11418859159390
ONEWEB-0082             
1 45452U 20020AE  23171.68958880 -.00000466  00000+0 -13520-2 0  9990
2 45452  87.8912 238.0369 0001939  94.4465 265.6884 13.11418026159485
ONEWEB-0050             
1 45453U 20020AF  23171.86758377  .00006177  00000+0  48185-3 0  9999
2 45453  87.5345 124.3988 0023251 310.2606  49.6594 15.00790162177453
ONEWEB-0034             
1 45454U 20020AG  23171.70868368  .00000533  00000+0  14680-2 0  9997
2 45454  87.8911 238.0521 0002105  94.1351 266.0018 13.11416503159407
ONEWEB-0060             
1 45455U 20020AH  23171.71609531  .00000471  00000+0  12939-2 0  9990
2 45455  87.8904 238.0555 0002075  96.7276 263.4088 13.11419089159362
ONEWEB-0086             
1 45456U 20020AJ  23171.73411889 -.00000082  00000+0 -26598-3 0  9997
2 45456  87.8907 238.0499 0002007  91.1375 268.9983 13.11414955159425
ONEWEB-0088             
1 45457U 20020AK  23171.71080677  .00000501  00000+0  13771-2 0  9995
2 45457  87.8899 238.0411 0002193  94.1295 266.0083 13.11415636159359
ONEWEB-0102             
1 47258U 20100A   23172.11322944 -.00000147  00000+0 -44333-3 0  9993
2 47258  87.8993 207.6913 0001731  96.0507 264.0818 13.12440157121482
ONEWEB-0109             
1 47259U 20100B   23171.66638897 -.00000448  00000+0 -12804-2 0  9991
2 47259  87.9012 207.7860 0002075  91.3534 268.7832 13.12440553121250
ONEWEB-0110             
1 47260U 20100C   23171.38473537  .00000252  00000+0  66515-3 0  9990
2 47260  87.9007 207.8103 0001841  91.3554 268.7786 13.12445303121389
ONEWEB-0111             
1 47261U 20100D   23171.34029310  .00000119  00000+0  29633-3 0  9995
2 47261  87.9009 207.8026 0001927  95.0153 265.1195 13.12440736121219
ONEWEB-0114             
1 47262U 20100E   23171.37204762 -.00000189  00000+0 -56006-3 0  9998
2 47262  87.9009 207.8226 0001843 109.7797 250.3531 13.12443752121172
ONEWEB-0117             
1 47263U 20100F   23171.36358101  .00000222  00000+0  58057-3 0  9999
2 47263  87.9010 207.8550 0002332  95.2518 264.8877 13.12441590121181
ONEWEB-0118             
1 47264U 20100G   23171.39535530  .00000475  00000+0  12854-2 0  9990
2 47264  87.8994 207.7962 0002405 109.5934 250.5454 13.12443236121384
ONEWEB-0119             
1 47265U 20100H   23171.65158664 -.00000108  00000+0 -33445-3 0  9994
2 47265  87.8994 207.7827 0001966  90.4449 269.6905 13.12442986121399
ONEWEB-0120             
1 47266U 20100J   23171.37733664 -.00000042  00000+0 -15227-3 0  9998
2 47266  87.8995 207.8246 0002077  99.5231 260.6132 13.12444992121381
ONEWEB-0121             
1 47267U 20100K   23171.66427116 -.00000395  00000+0 -11343-2 0  9998
2 47267  87.9004 207.7645 0002086  87.8488 272.2880 13.12440819121338
ONEWEB-0122             
1 47268U 20100L   23172.11536053 -.00000276  00000+0 -80297-3 0  9994
2 47268  87.9010 207.6755 0001848  94.0688 266.0652 13.12442630121302
ONEWEB-0123             
1 47269U 20100M   23172.11111736  .00000879  00000+0  24072-2 0  9997
2 47269  87.8993 207.6902 0002054  92.3710 267.7654 13.12437484121449
ONEWEB-0124             
1 47270U 20100N   23171.33603273  .00000228  00000+0  59933-3 0  9997
2 47270  87.9007 207.8338 0002054  81.9432 278.1929 13.12443788121229
ONEWEB-0125             
1 47271U 20100P   23172.07512173  .00000182  00000+0  47082-3 0  9999
2 47271  87.9013 207.7070 0002518  91.7468 268.3949 13.12442607121381
ONEWEB-0126             
1 47272U 20100Q   23171.49168374  .00000080  00000+0  18590-3 0  9994
2 47272  87.9009 207.8170 0001922  96.5535 263.5813 13.12442579121379
ONEWEB-0127             
1 47273U 20100R   23171.37840691  .00000030  00000+0  46755-4 0  9991
2 47273  87.8994 207.8237 0002023  95.8993 264.2366 13.12444461121383
ONEWEB-0128             
1 47274U 20100S   23172.08570453  .00000480  00000+0  12986-2 0  9993
2 47274  87.9001 207.6639 0001719  87.0429 273.0896 13.12445041121499
ONEWEB-0129             
1 47275U 20100T   23171.38052092  .00000116  00000+0  28817-3 0  9997
2 47275  87.9007 207.8507 0002106 141.2990 218.8290 13.12445576121330
ONEWEB-0130             
1 47276U 20100U   23171.32969902  .00000423  00000+0  11417-2 0  9997
2 47276  87.9009 207.8550 0001990  91.5250 268.6107 13.12443852121297
ONEWEB-0131             
1 47277U 20100V   23171.40382857  .00000467  00000+0  12634-2 0  9995
2 47277  87.9009 207.7845 0002004  87.8112 272.3246 13.12444755121341
ONEWEB-0132             
1 47278U 20100W   23171.50967748 -.00000374  00000+0 -10757-2 0  9998
2 47278  87.9008 207.7655 0001966  98.3872 261.7480 13.12440632121258
ONEWEB-0133             
1 47279U 20100X   23171.37414684 -.00000375  00000+0 -10779-2 0  9995
2 47279  87.9002 207.8264 0002091  90.7084 269.4284 13.12444317121397
ONEWEB-0134             
1 47280U 20100Y   23171.64734015  .00000055  00000+0  11638-3 0  9999
2 47280  87.9004 207.7590 0001709  90.9170 269.2154 13.12439659121404
ONEWEB-0135             
1 47281U 20100Z   23171.38685550  .00000218  00000+0  56991-3 0  9992
2 47281  87.8995 207.8185 0001907  93.9448 266.1899 13.12445015121398
ONEWEB-0136             
1 47282U 20100AA  23172.09418493  .00000431  00000+0  11629-2 0  9997
2 47282  87.9006 207.7107 0001418  95.2067 264.9224 13.12442956121417
ONEWEB-0137             
1 47283U 20100AB  23171.36778958 -.00000242  00000+0 -70831-3 0  9995
2 47283  87.9009 207.8204 0002122  97.1047 263.0323 13.12441347121224
ONEWEB-0138             
1 47284U 20100AC  23172.10689971  .00007699  00000+0  21360-1 0  9997
2 47284  87.9009 207.6852 0002019 101.3523 258.7832 13.12403970121400
ONEWEB-0139             
1 47285U 20100AD  23171.39323265  .00000505  00000+0  13680-2 0  9995
2 47285  87.8994 207.8603 0001865  90.6816 269.4526 13.12442796121387
ONEWEB-0140             
1 47286U 20100AE  23172.10051710  .00002527  00000+0  69860-2 0  9996
2 47286  87.9010 207.6609 0001879  92.3322 267.8022 13.12462374121431
ONEWEB-0141             
1 47287U 20100AF  23171.66537272 -.00000449  00000+0 -12834-2 0  9991
2 47287  87.9008 207.7451 0002408  97.9949 262.1453 13.12440822121373
ONEWEB-0142             
1 47288U 20100AG  23172.11430716 -.00001732  00000+0 -48504-2 0  9997
2 47288  87.9010 207.7077 0002335  83.8688 276.2707 13.12447627121428
ONEWEB-0143             
1 47289U 20100AH  23171.38264837  .00000184  00000+0  47494-3 0  9991
2 47289  87.9008 207.8127 0002115  92.0215 268.1156 13.12444920121305
ONEWEB-0144             
1 47290U 20100AJ  23172.11747448 -.00000258  00000+0 -75247-3 0  9990
2 47290  87.9008 207.6835 0001777 102.9112 257.2215 13.12442673121321
ONEWEB-0145             
1 47291U 20100AK  23172.08782997  .00000468  00000+0  12663-2 0  9998
2 47291  87.9000 207.6834 0002067  95.9075 264.2289 13.12441189121516
ONEWEB-0146             
1 47292U 20100AL  23172.08360576  .00000398  00000+0  10709-2 0  9995
2 47292  87.9012 207.7064 0002484  82.9409 277.2002 13.12442803121427
ONEWEB-0147             
1 47293U 20100AM  23171.36568267 -.00000310  00000+0 -89802-3 0  9990
2 47293  87.9009 207.8074 0001596  93.3874 266.7438 13.12444166121229
ONEWEB-0115             
1 48042U 21025A   23171.25545773  .00000065  00000+0  14384-3 0  9993
2 48042  87.9047 177.5672 0002118  82.5527 277.5843 13.13470783110129
ONEWEB-0152             
1 48043U 21025B   23171.42050193 -.00000227  00000+0 -65746-3 0  9990
2 48043  87.9046 177.5205 0001929  86.4135 273.7215 13.13467159110100
ONEWEB-0153             
1 48044U 21025C   23172.08283781  .00000363  00000+0  95877-3 0  9992
2 48044  87.9047 177.3817 0001964  91.0539 269.0815 13.13470929110190
ONEWEB-0154             
1 48045U 21025D   23172.08072095  .00000351  00000+0  92698-3 0  9992
2 48045  87.9044 177.3913 0001978  88.3377 271.7979 13.13467690110157
ONEWEB-0116             
1 48046U 21025E   23171.43745103 -.00000264  00000+0 -75915-3 0  9996
2 48046  87.9037 177.4940 0002224  82.4198 277.7184 13.13471259110208
ONEWEB-0150             
1 48047U 21025F   23171.25757968  .00000026  00000+0  35046-4 0  9995
2 48047  87.9041 177.5514 0002027  94.7151 265.4210 13.13471609110076
ONEWEB-0107             
1 48048U 21025G   23172.09764879  .00000084  00000+0  19478-3 0  9992
2 48048  87.9041 177.3838 0002029 101.2425 258.8932 13.13470645110160
ONEWEB-0101             
1 48049U 21025H   23172.06166929  .00000011  00000+0 -51590-5 0  9996
2 48049  87.9042 177.3999 0001845  92.5995 267.5345 13.13471908110134
